{
  "type": "FeatureCollection",
  "features": [
    {
      "type": "Feature",
      "properties": {
        "norad_id": 66981,
        "name": "STARLINK-36142",
        "group": "last-30-days",
        "lat": -1.157314692592147,
        "lon": -58.61733040928769,
        "alt_km": 329.28390695192866,
        "timestamp": "2025-12-20T09:36:00.355247+00:00",
        "meta_object_name": "STARLINK-36142",
        "meta_object_id": "2025-288Y",
        "meta_epoch": "2025-12-20T04:00:00.999072",
        "meta_mean_motion": 15.81218296,
        "meta_eccentricity": 0.0001517,
        "meta_inclination": 43.0024,
        "meta_ra_of_asc_node": 121.5685,
        "meta_arg_of_pericenter": 267.3698,
        "meta_mean_anomaly": 24.7924,
        "meta_ephemeris_type": 0,
        "meta_classification_type": "U",
        "meta_norad_cat_id": 66981,
        "meta_element_set_no": 999,
        "meta_rev_at_epoch": 302,
        "meta_bstar": -0.0088761,
        "meta_mean_motion_dot": -0.01577285,
        "meta_mean_motion_ddot": 0,
        "tle_line1": "1 66981U 25288Y   25354.16667823 -.01577285  00000+0 -88761-2 0  9991",
        "tle_line2": "2 66981  43.0024 121.5685 0001517 267.3698  24.7924 15.81218296  3024"
      },
      "geometry": {
        "type": "Point",
        "coordinates": [
          -58.61733040928769,
          -1.157314692592147
        ]
      }
    },
    {
      "type": "Feature",
      "properties": {
        "norad_id": 66982,
        "name": "STARLINK-36113",
        "group": "last-30-days",
        "lat": -2.6485895946733033,
        "lon": -57.01985677751226,
        "alt_km": 329.2557532784376,
        "timestamp": "2025-12-20T09:36:00.355257+00:00",
        "meta_object_name": "STARLINK-36113",
        "meta_object_id": "2025-288Z",
        "meta_epoch": "2025-12-20T04:00:00.999072",
        "meta_mean_motion": 15.81188672,
        "meta_eccentricity": 0.0001562,
        "meta_inclination": 43.0019,
        "meta_ra_of_asc_node": 121.5627,
        "meta_arg_of_pericenter": 254.5386,
        "meta_mean_anomaly": 39.8396,
        "meta_ephemeris_type": 0,
        "meta_classification_type": "U",
        "meta_norad_cat_id": 66982,
        "meta_element_set_no": 999,
        "meta_rev_at_epoch": 302,
        "meta_bstar": -0.0089599,
        "meta_mean_motion_dot": -0.01588388,
        "meta_mean_motion_ddot": 0,
        "tle_line1": "1 66982U 25288Z   25354.16667823 -.01588388  00000+0 -89599-2 0  9998",
        "tle_line2": "2 66982  43.0019 121.5627 0001562 254.5386  39.8396 15.81188672  3021"
      },
      "geometry": {
        "type": "Point",
        "coordinates": [
          -57.01985677751226,
          -2.6485895946733033
        ]
      }
    },
    {
      "type": "Feature",
      "properties": {
        "norad_id": 66983,
        "name": "STARLINK-36145",
        "group": "last-30-days",
        "lat": -5.644584586602256,
        "lon": -53.78798682782468,
        "alt_km": 329.9040477252747,
        "timestamp": "2025-12-20T09:36:00.355267+00:00",
        "meta_object_name": "STARLINK-36145",
        "meta_object_id": "2025-288AA",
        "meta_epoch": "2025-12-20T04:00:00.999072",
        "meta_mean_motion": 15.81139831,
        "meta_eccentricity": 0.0001693,
        "meta_inclination": 43.0021,
        "meta_ra_of_asc_node": 121.5516,
        "meta_arg_of_pericenter": 263.8379,
        "meta_mean_anomaly": 35.0003,
        "meta_ephemeris_type": 0,
        "meta_classification_type": "U",
        "meta_norad_cat_id": 66983,
        "meta_element_set_no": 999,
        "meta_rev_at_epoch": 302,
        "meta_bstar": -0.0091907,
        "meta_mean_motion_dot": -0.01620808,
        "meta_mean_motion_ddot": 0,
        "tle_line1": "1 66983U 25288AA  25354.16667823 -.01620808  00000+0 -91907-2 0  9999",
        "tle_line2": "2 66983  43.0021 121.5516 0001693 263.8379  35.0003 15.81139831  3028"
      },
      "geometry": {
        "type": "Point",
        "coordinates": [
          -53.78798682782468,
          -5.644584586602256
        ]
      }
    },
    {
      "type": "Feature",
      "properties": {
        "norad_id": 66984,
        "name": "STARLINK-35591",
        "group": "last-30-days",
        "lat": -4.157428888510287,
        "lon": -55.39762638574452,
        "alt_km": 329.7552337041643,
        "timestamp": "2025-12-20T09:36:00.355282+00:00",
        "meta_object_name": "STARLINK-35591",
        "meta_object_id": "2025-288AB",
        "meta_epoch": "2025-12-20T04:00:00.999072",
        "meta_mean_motion": 15.81174214,
        "meta_eccentricity": 0.0001503,
        "meta_inclination": 43.0021,
        "meta_ra_of_asc_node": 121.5566,
        "meta_arg_of_pericenter": 266.7695,
        "meta_mean_anomaly": 29.8463,
        "meta_ephemeris_type": 0,
        "meta_classification_type": "U",
        "meta_norad_cat_id": 66984,
        "meta_element_set_no": 999,
        "meta_rev_at_epoch": 302,
        "meta_bstar": -0.0091584,
        "meta_mean_motion_dot": -0.01617964,
        "meta_mean_motion_ddot": 0,
        "tle_line1": "1 66984U 25288AB  25354.16667823 -.01617964  00000+0 -91584-2 0  9990",
        "tle_line2": "2 66984  43.0021 121.5566 0001503 266.7695  29.8463 15.81174214  3022"
      },
      "geometry": {
        "type": "Point",
        "coordinates": [
          -55.39762638574452,
          -4.157428888510287
        ]
      }
    },
    {
      "type": "Feature",
      "properties": {
        "norad_id": 66985,
        "name": "STARLINK-36103",
        "group": "last-30-days",
        "lat": -7.1852614896960905,
        "lon": -52.107232297125535,
        "alt_km": 330.2526404028413,
        "timestamp": "2025-12-20T09:36:00.355294+00:00",
        "meta_object_name": "STARLINK-36103",
        "meta_object_id": "2025-288AC",
        "meta_epoch": "2025-12-20T04:00:00.999072",
        "meta_mean_motion": 15.81096674,
        "meta_eccentricity": 0.000166,
        "meta_inclination": 43.0021,
        "meta_ra_of_asc_node": 121.5456,
        "meta_arg_of_pericenter": 266.9911,
        "meta_mean_anomaly": 34.1627,
        "meta_ephemeris_type": 0,
        "meta_classification_type": "U",
        "meta_norad_cat_id": 66985,
        "meta_element_set_no": 999,
        "meta_rev_at_epoch": 302,
        "meta_bstar": -0.0092776,
        "meta_mean_motion_dot": -0.01631197,
        "meta_mean_motion_ddot": 0,
        "tle_line1": "1 66985U 25288AC  25354.16667823 -.01631197  00000+0 -92776-2 0  9999",
        "tle_line2": "2 66985  43.0021 121.5456 0001660 266.9911  34.1627 15.81096674  3022"
      },
      "geometry": {
        "type": "Point",
        "coordinates": [
          -52.107232297125535,
          -7.1852614896960905
        ]
      }
    },
    {
      "type": "Feature",
      "properties": {
        "norad_id": 66986,
        "name": "STARLINK-36135",
        "group": "last-30-days",
        "lat": -8.719882392466179,
        "lon": -50.41527044366242,
        "alt_km": 330.5388603034098,
        "timestamp": "2025-12-20T09:36:00.355304+00:00",
        "meta_object_name": "STARLINK-36135",
        "meta_object_id": "2025-288AD",
        "meta_epoch": "2025-12-20T04:00:00.999072",
        "meta_mean_motion": 15.81056586,
        "meta_eccentricity": 0.0001597,
        "meta_inclination": 43.0018,
        "meta_ra_of_asc_node": 121.5391,
        "meta_arg_of_pericenter": 267.2294,
        "meta_mean_anomaly": 36.2391,
        "meta_ephemeris_type": 0,
        "meta_classification_type": "U",
        "meta_norad_cat_id": 66986,
        "meta_element_set_no": 999,
        "meta_rev_at_epoch": 302,
        "meta_bstar": -0.009412,
        "meta_mean_motion_dot": -0.01648906,
        "meta_mean_motion_ddot": 0,
        "tle_line1": "1 66986U 25288AD  25354.16667823 -.01648906  00000+0 -94120-2 0  9991",
        "tle_line2": "2 66986  43.0018 121.5391 0001597 267.2294  36.2391 15.81056586  3023"
      },
      "geometry": {
        "type": "Point",
        "coordinates": [
          -50.41527044366242,
          -8.719882392466179
        ]
      }
    },
    {
      "type": "Feature",
      "properties": {
        "norad_id": 66987,
        "name": "STARLINK-36147",
        "group": "last-30-days",
        "lat": -10.167416763400029,
        "lon": -48.79763544147296,
        "alt_km": 330.860187881407,
        "timestamp": "2025-12-20T09:36:00.355314+00:00",
        "meta_object_name": "STARLINK-36147",
        "meta_object_id": "2025-288AE",
        "meta_epoch": "2025-12-20T04:00:00.999072",
        "meta_mean_motion": 15.81029622,
        "meta_eccentricity": 0.0001628,
        "meta_inclination": 43.0022,
        "meta_ra_of_asc_node": 121.5343,
        "meta_arg_of_pericenter": 272.6535,
        "meta_mean_anomaly": 32.9989,
        "meta_ephemeris_type": 0,
        "meta_classification_type": "U",
        "meta_norad_cat_id": 66987,
        "meta_element_set_no": 999,
        "meta_rev_at_epoch": 302,
        "meta_bstar": -0.009478,
        "meta_mean_motion_dot": -0.01657125,
        "meta_mean_motion_ddot": 0,
        "tle_line1": "1 66987U 25288AE  25354.16667823 -.01657125  00000+0 -94780-2 0  9997",
        "tle_line2": "2 66987  43.0022 121.5343 0001628 272.6535  32.9989 15.81029622  3026"
      },
      "geometry": {
        "type": "Point",
        "coordinates": [
          -48.79763544147296,
          -10.167416763400029
        ]
      }
    }
  ]
}